0 METEOR 2-5 DEB
1 36902U 79095AT  11002.36722658  .00001731  00000-0  51835-3 0  9990
2 36902 081.1946 140.9105 0007536 062.3932 297.8057 14.42497148407336
0 METEOR 2-5 DEB
1 36900U 79095AR  11001.94490634  .00004070  00000-0  67882-3 0  9995
2 36900 081.1646 349.6116 0007486 269.4570 090.4541 14.69826940374651
0 METEOR 2-5 DEB
1 36899U 79095AQ  11006.34501042  .00002408  00000-0  74680-3 0  9994
2 36899 081.1865 145.8163 0003115 285.6063 074.6255 14.40922735408495
0 METEOR 2-5 DEB
1 36898U 79095AP  11004.61758665  .00002048  00000-0  57646-3 0  9999
2 36898 081.1819 119.3147 0016366 071.6054 288.6914 14.45514999372073
0 METEOR 2-5 DEB
1 36897U 79095AN  11002.12012277  .00001616  00000-0  47572-3 0  9991
2 36897 081.1891 141.9278 0012798 164.7250 195.3195 14.43276816408688
0 METEOR 2-5 DEB
1 36896U 79095AM  11001.65301005  .00002416  00000-0  58105-3 0  9990
2 36896 081.2077 083.5164 0015698 278.6817 081.2510 14.53038336376069
0 METEOR 2-5 DEB
1 36894U 79095AK  11002.02127158  .00002201  00000-0  81188-3 0  9994
2 36894 081.2209 214.6395 0022367 275.9195 083.9456 14.32122451387549
0 METEOR 2-5 DEB
1 36893U 79095AJ  11001.67040973  .00003267  00000-0  87418-3 0  9997
2 36893 081.1957 131.7487 0010077 053.4499 306.7290 14.48101033443296
0 METEOR 2-5 DEB
1 36892U 79095AH  11001.14256913 +.00002738 +00000-0 +58139-3 0  9991
2 36892 081.1770 055.9912 0016160 187.6988 172.4183 14.58835826384478
0 METEOR 2-5 DEB
1 36891U 79095AG  11002.07310689  .00002805  00000-0  83103-3 0  9998
2 36891 081.1925 135.2155 0015104 119.0897 241.2067 14.43116509372124
0 METEOR 2-5 DEB
1 36890U 79095AF  11007.92871827  .00002045  00000-0  55753-3 0  9998
2 36890 081.1807 098.7030 0006372 058.9648 301.2130 14.47116293413789
0 METEOR 2-5 DEB
1 36889U 79095AE  11007.69388796  .00002389  00000-0  42158-3 0  9994
2 36889 081.1822 011.6900 0016679 121.5728 238.7290 14.67125822421860
0 METEOR 2-5 DEB
1 36888U 79095AD  11003.21697277  .00002638  00000-0  67899-3 0  9990
2 36888 081.1855 096.2575 0001007 329.6032 030.2964 14.49931151438276
0 METEOR 2-5 DEB
1 36886U 79095AB  11002.96288188  .00001868  00000-0  50374-3 0  9990
2 36886 081.1739 092.9509 0007910 069.3066 290.6333 14.47590692409762
0 METEOR 2-5 DEB
1 36885U 79095AA  11003.10616972  .00003112  00000-0  85676-3 0  9999
2 36885 081.1963 143.6343 0009916 140.4798 219.5684 14.46727954318682
0 SL-12 DEB
1 36883U 89001W   11005.82971320  .00042556  00000-0  48991-1 0  9999
2 36883 064.7904 289.2082 2491894 112.6301 275.5925 09.69669827 23509
0 SL-12 DEB
1 36882U 89001V   11001.25031591  .00012609  00000-0  53566-1 0  9998
2 36882 064.5749 308.8407 2620904 120.1436 268.5337 09.04206446 22568
0 MINOTAUR DEB
1 36881U 05011C   11007.94951045  .00002166  00000-0  11877-2 0  9990
2 36881 098.9457 015.1443 0005447 051.6923 308.4752 14.12888857 63903
0 METEOR 2-7 DEB
1 36878U 81043R   11003.78539734  .00001145  00000-0  62602-3 0  9999
2 36878 081.2621 180.6570 0051409 281.0957 078.3052 14.10758296 67733
0 METEOR 2-7 DEB
1 36877U 81043Q   11001.80866644 +.00002408 +00000-0 +73041-3 0  9994
2 36877 081.2507 030.5393 0024199 179.2220 180.8748 14.41820220314544
0 METEOR 2-7 DEB
1 36875U 81043N   11004.70845374  .00001102  00000-0  44561-3 0  9996
2 36875 081.2594 104.7659 0027215 054.3771 305.9701 14.27039316360938
0 METEOR 2-8 DEB
1 36867U 82025BE  11001.87617565  .00000810  00000-0  52477-3 0  9992
2 36867 082.5288 211.1767 0022996 325.1956 036.7069 14.01529922398443
0 METEOR 2-8 DEB
1 36858U 82025AV  11003.56843986  .00001697  00000-0  11679-2 0  9990
2 36858 082.5225 218.2444 0017891 086.7518 273.6098 13.98753697249729
0 DMSP 5D-2 F8 DEB
1 36856U 87053H   11002.64205977  .00027536  00000-0  56199-2 0  9990
2 36856 099.2313 251.0199 0013796 152.8963 207.3763 14.60802868219366
0 DMSP 5D-2 F8 DEB
1 36855U 87053G   11005.32087936  .00029342  00000-0  10144-1 0  9996
2 36855 098.7894 201.7018 0020796 189.8602 170.2202 14.35519964 51648
0 DMSP 5D-2 F8 DEB
1 36854U 87053F   11001.06449976  .00023297  00000-0  85582-2 0  9990
2 36854 098.7589 196.0616 0031613 179.3011 180.8628 14.32377760 50366
0 RESURS O1 DEB
1 36852U 94074V   11004.39847601 +.00004587 +00000-0 +59688-3 0  9995
2 36852 098.0178 345.2299 0001502 022.2825 337.8414 14.81135167070219
0 RESURS O1 DEB
1 36851U 94074U   11003.89488523  .00008960  00000-0  11068-2 0  9990
2 36851 098.0287 345.7408 0002849 092.0392 268.3369 14.83049940 71061
0 RESURS O1 DEB
1 36850U 94074T   11005.74969583 +.00008899 +00000-0 +11211-2 0  9996
2 36850 098.0364 347.5548 0005796 169.1386 191.0043 14.82225237071520
0 RESURS O1 DEB
1 36849U 94074S   11002.37942900  .00004162  00000-0  56587-3 0  9999
2 36849 098.0691 344.3151 0000891 075.9273 284.2108 14.79333900 29473
0 RESURS O1 DEB
1 36848U 94074R   11005.40760983  .00007099  00000-0  92571-3 0  9999
2 36848 098.0486 347.3429 0003191 092.7813 267.3968 14.80856573 52401
0 CZ-4C R/B
1 36835U 10038B   11005.17438113  .00001864  00000-0  72245-4 0  9995
2 36835 097.7790 020.5908 0150633 244.0276 114.5424 15.17708781 22485
0 YAOGAN 10
1 36834U 10038A   11004.86100537  .00000711  00000-0  10000-3 0  9995
2 36834 097.8250 012.5918 0001312 101.3699 258.7624 14.80288411 21890
0 PRISMA (TANGO)
1 36827U 10028F   11004.57023952  .00000090  00000-0  40782-4 0  9990
2 36827 098.2789 190.3624 0042459 302.0895 057.6152 14.40900643 20994
0 PSLV DEB
1 36801U 10035G   11005.23568140  .00001081  00000-0  15020-3 0  9994
2 36801 098.1271 071.6154 0014916 071.7775 288.5057 14.79923585 26193
0 PSLV R/B
1 36800U 10035F   11005.20928999  .00000128  00000-0  20758-4 0  9998
2 36800 098.0642 072.1413 0025855 163.8830 196.3271 14.86777027 26310
0 TISAT 1
1 36799U 10035E   11003.08244316  .00000366  00000-0  55232-4 0  9992
2 36799 098.1241 069.5683 0016723 090.3934 269.9202 14.80278593 25885
0 ALSAT 2A
1 36798U 10035D   11002.36385626  .00000061  00000-0  19880-4 0  9992
2 36798 098.2083 066.8391 0001511 093.2672 266.8717 14.66372276 25542
0 AISSAT 1
1 36797U 10035C   11002.69984906  .00000196  00000-0  32625-4 0  9994
2 36797 098.1249 069.2976 0013834 096.2671 264.0129 14.80621224 25827
0 STUDSAT
1 36796U 10035B   11007.38879087  .00000282  00000-0  44538-4 0  9999
2 36796 098.1245 073.8142 0016338 071.6755 288.6233 14.79867643 26510
0 CARTOSAT 2B
1 36795U 10035A   11004.84339839  .00000062  00000-0  15634-4 0  9993
2 36795 097.9835 068.1703 0017749 088.1463 272.1754 14.78656232 26118
0 FENGYUN 1C DEB
1 36743U 99025EBR 11003.17172954  .00000434  00000-0  26391-3 0  9994
2 36743 098.9720 001.4190 0060614 100.5049 260.3677 14.10558226118398
0 FENGYUN 1C DEB
1 36740U 99025EBN 11002.63965593  .00002869  00000-0  19310-2 0  9996
2 36740 098.6332 313.1754 0082577 119.3295 236.0308 13.99676914124246
0 FENGYUN 1C DEB
1 36739U 99025EBM 11005.50144828  .00001503  00000-0  42018-3 0  9999
2 36739 099.0225 102.2818 0130373 005.3038 354.9329 14.42973224120641
0 FENGYUN 1C DEB
1 36738U 99025EBL 11002.62433109  .00001242  00000-0  67710-3 0  9997
2 36738 100.7910 305.1022 0053854 168.0585 188.5778 14.13910555144791
0 FENGYUN 1C DEB
1 36737U 99025EBK 11004.69573134 +.00003269 +00000-0 +91066-3 0  9990
2 36737 099.0740 095.2181 0158467 078.1308 283.7600 14.39936260055583
0 FENGYUN 1C DEB
1 36735U 99025EBH 11004.96292727 +.00000802 +00000-0 +35831-3 0  9992
2 36735 099.1326 071.8125 0119637 215.3394 143.9805 14.21913280162789
0 FENGYUN 1C DEB
1 36734U 99025EBG 11005.33904396  .00000642  00000-0  44856-3 0  9994
2 36734 098.8628 324.4629 0052256 080.5316 280.1771 14.01386910 58135
0 FENGYUN 1C DEB
1 36733U 99025EBF 11005.32176017  .00000651  00000-0  56574-3 0  9993
2 36733 099.0792 316.1468 0169072 168.3221 192.1926 13.83247274 66820
0 FENGYUN 1C DEB
1 36732U 99025EBE 11006.15054871  .00001201  00000-0  19854-3 0  9999
2 36732 098.9674 133.3536 0212959 227.7701 130.8993 14.58801868108601
0 FENGYUN 1C DEB
1 36731U 99025EBD 11005.96970452  .00000930  00000-0  44707-3 0  9991
2 36731 099.1328 068.5846 0059182 105.7208 255.2109 14.20468614105184
0 FENGYUN 1C DEB
1 36730U 99025EBC 11004.84691743  .00001175  00000-0  55432-3 0  9998
2 36730 099.6518 146.4214 0046574 251.6105 107.9724 14.21507912 69149
0 FENGYUN 1C DEB
1 36728U 99025EBA 11003.56406212  .00005276  00000-0  95040-3 0  9993
2 36728 099.0380 129.1053 0163446 273.6751 080.8445 14.58714698103841
0 FENGYUN 1C DEB
1 36727U 99025EAZ 11007.05068289 +.00001274 +00000-0 +39725-3 0  9990
2 36727 099.0290 095.0528 0124455 355.6426 004.3655 14.38441107119936
0 FENGYUN 1C DEB
1 36726U 99025EAY 11003.47642024 +.00001495 +00000-0 +35384-3 0  9998
2 36726 098.9731 094.8224 0208314 297.5247 060.4963 14.43479512109071
0 FENGYUN 1C DEB
1 36723U 99025EAV 11005.32115546  .00003208  00000-0  10749-2 0  9996
2 36723 098.8944 054.0068 0101866 069.7885 291.3734 14.35124484116118
0 FENGYUN 1C DEB
1 36722U 99025EAU 11001.74225356  .00001342  00000-0  29629-3 0  9993
2 36722 099.0180 105.0146 0163050 310.3426 048.2065 14.51399420111646
0 FENGYUN 1C DEB
1 36721U 99025EAT 11002.22569127  .00002956  00000-0  78814-3 0  9995
2 36721 099.0770 103.8949 0122418 018.9155 341.4664 14.44916791 72670
0 FENGYUN 1C DEB
1 36720U 99025EAS 11002.60501193  .00010101  00000-0  13339-2 0  9996
2 36720 099.0138 143.8038 0185138 221.0941 137.9055 14.68963948111733
0 FENGYUN 1C DEB
1 36719U 99025EAR 11004.00476739  .00000716  00000-0  39671-3 0  9996
2 36719 098.5842 299.6760 0115881 051.9685 309.1883 14.10832224101620
0 FENGYUN 1C DEB
1 36718U 99025EAQ 11003.75896947 +.00003422 +00000-0 +88251-3 0  9998
2 36718 099.1220 116.8213 0121027 339.0839 020.5393 14.46480309107852
0 FENGYUN 1C DEB
1 36716U 99025EAN 11006.06639367  .00000065  00000-0  85310-4 0  9998
2 36716 099.0490 312.5652 0152895 134.2632 227.1190 13.85616440153291
0 FENGYUN 1C DEB
1 36715U 99025EAM 11001.28396295  .00000683  00000-0  17270-3 0  9991
2 36715 098.5780 018.4402 0211897 346.4792 013.0470 14.41889116112162
0 FENGYUN 1C DEB
1 36714U 99025EAL 11007.26664073  .00000705  00000-0  43713-3 0  9992
2 36714 099.0906 021.8071 0040450 106.2895 254.2693 14.08078362119415
